LEMUR-2-JK0903EM1407    
1 58336U 23174CJ  26066.14928587  .00029646  00000+0  59721-3 0  9999
2 58336  97.3915 154.1765 0006304 124.2784 235.9063 15.46510002129937
LEMUR-2-MJR092620       
1 58340U 23174CN  26066.17174534  .00014845  00000+0  34914-3 0  9994
2 58340  97.3986 154.5676 0007952 121.6222 238.5802 15.42048992129911
LEMUR-2-NIMBUS2000      
1 58899U 24022A   26066.15194259  .00019454  00000+0  54421-3 0  9996
2 58899  97.4228 275.0423 0010614 121.6295 238.5986 15.36646552116589
LEMUR-2-VALHALLA        
1 58900U 24022B   26066.06557230  .00019642  00000+0  55359-3 0  9991
2 58900  97.4223 274.9898 0011130 117.5971 242.6405 15.36405804116574
LEMUR-2-OBA-NI-JESU     
1 58902U 24022D   26066.04595566  .00107704  00000+0  10971-2 0  9992
2 58902  97.4057 283.9696 0005027  78.3676 281.8147 15.64761623117182
LEMUR-2-CAEL            
1 58903U 24022E   26066.09021823  .00019536  00000+0  53113-3 0  9999
2 58903  97.4213 275.7841 0009475 102.3005 257.9301 15.37545899116633
LEMUR-2-JOHNNYTRUONG    
1 59146U 24043BA  26066.13945947  .00045348  00000+0  72857-3 0  9995
2 59146  97.5260 212.1817 0005375 192.4738 167.6382 15.52880358112161
LEMUR-2-TOMATOKECHUP    
1 60471U 24149D   26066.14780110  .00014083  00000+0  43467-3 0  9992
2 60471  97.3846 148.0906 0001244 191.6092 168.5122 15.33671017 86513
LEMUR-2-STELLA          
1 60533U 24149BT  26066.20747412  .00013848  00000+0  86999-3 0  9991
2 60533  97.6777 148.3902 0001588  95.2142 264.9268 15.09374476 85101
LEMUR-2-MARHISYAM       
1 60536U 24149BW  26066.15420852  .00014118  00000+0  89771-3 0  9996
2 60536  97.6922 148.6740 0003529 111.8240 248.3364 15.08924445 85086
LEMUR-2-AHMED-ASRAR     
1 60576U 24149DN  26066.14882557  .00013388  00000+0  82053-3 0  9997
2 60576  97.7033 150.3858 0001968  31.1888 328.9457 15.10287222 85155
LEMUR-2-LLOYD           
1 60577U 24149DP  26066.20266473  .00012424  00000+0  83065-3 0  9992
2 60577  97.6791 147.4254 0005359 130.0867 230.0830 15.07097021 85023
LEMUR-2-SQUIRRELCOMM    
1 60578U 24149DQ  26066.16901848  .00009086  00000+0  62992-3 0  9996
2 60578  97.6754 147.4852 0006107  49.1674 311.0081 15.05827331 85048
LEMUR-2-SIERRINI        
1 60579U 24149DR  26066.15585355  .00014226  00000+0  91259-3 0  9997
2 60579  97.6884 148.4659 0006400 155.3620 204.7915 15.08586670 85063
LEMUR-2-WILSON          
1 62694U 25009CP  26066.15413036  .00003253  00000+0  30531-3 0  9993
2 62694  97.7071 146.4277 0003670  41.7273 318.4227 14.94657603 62113
LEMUR-2-STAR-FOX        
1 62696U 25009CR  26066.01249412  .00011545  00000+0  91252-3 0  9995
2 62696  97.7047 148.4783 0002421 158.0882 202.0446 15.00813881 62226
