[{"OBJECT_NAME":"LEMUR-2-JK0903EM1407","OBJECT_ID":"2023-174CJ","EPOCH":"2026-03-07T03:34:58.299168","MEAN_MOTION":15.46510002,"ECCENTRICITY":0.0006304,"INCLINATION":97.3915,"RA_OF_ASC_NODE":154.1765,"ARG_OF_PERICENTER":124.2784,"MEAN_ANOMALY":235.9063,"EPHEMERIS_TYPE":0,"CLASSIFICATION_TYPE":"U","NORAD_CAT_ID":58336,"ELEMENT_SET_NO":999,"REV_AT_EPOCH":12993,"BSTAR":0.00059721,"MEAN_MOTION_DOT":0.00029646,"MEAN_MOTION_DDOT":0},{"OBJECT_NAME":"LEMUR-2-MJR092620","OBJECT_ID":"2023-174CN","EPOCH":"2026-03-07T04:07:18.797376","MEAN_MOTION":15.42048992,"ECCENTRICITY":0.0007952,"INCLINATION":97.3986,"RA_OF_ASC_NODE":154.5676,"ARG_OF_PERICENTER":121.6222,"MEAN_ANOMALY":238.5802,"EPHEMERIS_TYPE":0,"CLASSIFICATION_TYPE":"U","NORAD_CAT_ID":58340,"ELEMENT_SET_NO":999,"REV_AT_EPOCH":12991,"BSTAR":0.00034914,"MEAN_MOTION_DOT":0.00014845,"MEAN_MOTION_DDOT":0},{"OBJECT_NAME":"LEMUR-2-NIMBUS2000","OBJECT_ID":"2024-022A","EPOCH":"2026-03-07T03:38:47.839776","MEAN_MOTION":15.36646552,"ECCENTRICITY":0.0010614,"INCLINATION":97.4228,"RA_OF_ASC_NODE":275.0423,"ARG_OF_PERICENTER":121.6295,"MEAN_ANOMALY":238.5986,"EPHEMERIS_TYPE":0,"CLASSIFICATION_TYPE":"U","NORAD_CAT_ID":58899,"ELEMENT_SET_NO":999,"REV_AT_EPOCH":11658,"BSTAR":0.00054421,"MEAN_MOTION_DOT":0.00019454,"MEAN_MOTION_DDOT":0},{"OBJECT_NAME":"LEMUR-2-VALHALLA","OBJECT_ID":"2024-022B","EPOCH":"2026-03-07T01:34:25.446720","MEAN_MOTION":15.36405804,"ECCENTRICITY":0.001113,"INCLINATION":97.4223,"RA_OF_ASC_NODE":274.9898,"ARG_OF_PERICENTER":117.5971,"MEAN_ANOMALY":242.6405,"EPHEMERIS_TYPE":0,"CLASSIFICATION_TYPE":"U","NORAD_CAT_ID":58900,"ELEMENT_SET_NO":999,"REV_AT_EPOCH":11657,"BSTAR":0.00055359,"MEAN_MOTION_DOT":0.00019642,"MEAN_MOTION_DDOT":0},{"OBJECT_NAME":"LEMUR-2-OBA-NI-JESU","OBJECT_ID":"2024-022D","EPOCH":"2026-03-07T01:06:10.569024","MEAN_MOTION":15.64761623,"ECCENTRICITY":0.0005027,"INCLINATION":97.4057,"RA_OF_ASC_NODE":283.9696,"ARG_OF_PERICENTER":78.3676,"MEAN_ANOMALY":281.8147,"EPHEMERIS_TYPE":0,"CLASSIFICATION_TYPE":"U","NORAD_CAT_ID":58902,"ELEMENT_SET_NO":999,"REV_AT_EPOCH":11718,"BSTAR":0.0010971,"MEAN_MOTION_DOT":0.00107704,"MEAN_MOTION_DDOT":0},{"OBJECT_NAME":"LEMUR-2-CAEL","OBJECT_ID":"2024-022E","EPOCH":"2026-03-07T02:09:54.855072","MEAN_MOTION":15.37545899,"ECCENTRICITY":0.0009475,"INCLINATION":97.4213,"RA_OF_ASC_NODE":275.7841,"ARG_OF_PERICENTER":102.3005,"MEAN_ANOMALY":257.9301,"EPHEMERIS_TYPE":0,"CLASSIFICATION_TYPE":"U","NORAD_CAT_ID":58903,"ELEMENT_SET_NO":999,"REV_AT_EPOCH":11663,"BSTAR":0.00053113,"MEAN_MOTION_DOT":0.00019536,"MEAN_MOTION_DDOT":0},{"OBJECT_NAME":"LEMUR-2-JOHNNYTRUONG","OBJECT_ID":"2024-043BA","EPOCH":"2026-03-07T03:20:49.298208","MEAN_MOTION":15.52880358,"ECCENTRICITY":0.0005375,"INCLINATION":97.526,"RA_OF_ASC_NODE":212.1817,"ARG_OF_PERICENTER":192.4738,"MEAN_ANOMALY":167.6382,"EPHEMERIS_TYPE":0,"CLASSIFICATION_TYPE":"U","NORAD_CAT_ID":59146,"ELEMENT_SET_NO":999,"REV_AT_EPOCH":11216,"BSTAR":0.00072857,"MEAN_MOTION_DOT":0.00045348,"MEAN_MOTION_DDOT":0},{"OBJECT_NAME":"LEMUR-2-TOMATOKECHUP","OBJECT_ID":"2024-149D","EPOCH":"2026-03-07T03:32:50.015040","MEAN_MOTION":15.33671017,"ECCENTRICITY":0.0001244,"INCLINATION":97.3846,"RA_OF_ASC_NODE":148.0906,"ARG_OF_PERICENTER":191.6092,"MEAN_ANOMALY":168.5122,"EPHEMERIS_TYPE":0,"CLASSIFICATION_TYPE":"U","NORAD_CAT_ID":60471,"ELEMENT_SET_NO":999,"REV_AT_EPOCH":8651,"BSTAR":0.00043467,"MEAN_MOTION_DOT":0.00014083,"MEAN_MOTION_DDOT":0},{"OBJECT_NAME":"LEMUR-2-STELLA","OBJECT_ID":"2024-149BT","EPOCH":"2026-03-07T04:58:45.763968","MEAN_MOTION":15.09374476,"ECCENTRICITY":0.0001588,"INCLINATION":97.6777,"RA_OF_ASC_NODE":148.3902,"ARG_OF_PERICENTER":95.2142,"MEAN_ANOMALY":264.9268,"EPHEMERIS_TYPE":0,"CLASSIFICATION_TYPE":"U","NORAD_CAT_ID":60533,"ELEMENT_SET_NO":999,"REV_AT_EPOCH":8510,"BSTAR":0.00086999,"MEAN_MOTION_DOT":0.00013848,"MEAN_MOTION_DDOT":0},{"OBJECT_NAME":"LEMUR-2-MARHISYAM","OBJECT_ID":"2024-149BW","EPOCH":"2026-03-07T03:42:03.616128","MEAN_MOTION":15.08924445,"ECCENTRICITY":0.0003529,"INCLINATION":97.6922,"RA_OF_ASC_NODE":148.674,"ARG_OF_PERICENTER":111.824,"MEAN_ANOMALY":248.3364,"EPHEMERIS_TYPE":0,"CLASSIFICATION_TYPE":"U","NORAD_CAT_ID":60536,"ELEMENT_SET_NO":999,"REV_AT_EPOCH":8508,"BSTAR":0.00089771,"MEAN_MOTION_DOT":0.00014118,"MEAN_MOTION_DDOT":0},{"OBJECT_NAME":"LEMUR-2-AHMED-ASRAR","OBJECT_ID":"2024-149DN","EPOCH":"2026-03-07T03:34:18.529248","MEAN_MOTION":15.10287222,"ECCENTRICITY":0.0001968,"INCLINATION":97.7033,"RA_OF_ASC_NODE":150.3858,"ARG_OF_PERICENTER":31.1888,"MEAN_ANOMALY":328.9457,"EPHEMERIS_TYPE":0,"CLASSIFICATION_TYPE":"U","NORAD_CAT_ID":60576,"ELEMENT_SET_NO":999,"REV_AT_EPOCH":8515,"BSTAR":0.00082053,"MEAN_MOTION_DOT":0.00013388,"MEAN_MOTION_DDOT":0},{"OBJECT_NAME":"LEMUR-2-LLOYD","OBJECT_ID":"2024-149DP","EPOCH":"2026-03-07T04:51:50.232672","MEAN_MOTION":15.07097021,"ECCENTRICITY":0.0005359,"INCLINATION":97.6791,"RA_OF_ASC_NODE":147.4254,"ARG_OF_PERICENTER":130.0867,"MEAN_ANOMALY":230.083,"EPHEMERIS_TYPE":0,"CLASSIFICATION_TYPE":"U","NORAD_CAT_ID":60577,"ELEMENT_SET_NO":999,"REV_AT_EPOCH":8502,"BSTAR":0.00083065,"MEAN_MOTION_DOT":0.00012424,"MEAN_MOTION_DDOT":0},{"OBJECT_NAME":"LEMUR-2-SQUIRRELCOMM","OBJECT_ID":"2024-149DQ","EPOCH":"2026-03-07T04:03:23.196672","MEAN_MOTION":15.05827331,"ECCENTRICITY":0.0006107,"INCLINATION":97.6754,"RA_OF_ASC_NODE":147.4852,"ARG_OF_PERICENTER":49.1674,"MEAN_ANOMALY":311.0081,"EPHEMERIS_TYPE":0,"CLASSIFICATION_TYPE":"U","NORAD_CAT_ID":60578,"ELEMENT_SET_NO":999,"REV_AT_EPOCH":8504,"BSTAR":0.00062992,"MEAN_MOTION_DOT":9.086e-5,"MEAN_MOTION_DDOT":0},{"OBJECT_NAME":"LEMUR-2-SIERRINI","OBJECT_ID":"2024-149DR","EPOCH":"2026-03-07T03:44:25.746720","MEAN_MOTION":15.0858667,"ECCENTRICITY":0.00064,"INCLINATION":97.6884,"RA_OF_ASC_NODE":148.4659,"ARG_OF_PERICENTER":155.362,"MEAN_ANOMALY":204.7915,"EPHEMERIS_TYPE":0,"CLASSIFICATION_TYPE":"U","NORAD_CAT_ID":60579,"ELEMENT_SET_NO":999,"REV_AT_EPOCH":8506,"BSTAR":0.00091259,"MEAN_MOTION_DOT":0.00014226,"MEAN_MOTION_DDOT":0},{"OBJECT_NAME":"LEMUR-2-WILSON","OBJECT_ID":"2025-009CP","EPOCH":"2026-03-07T03:41:56.863104","MEAN_MOTION":14.94657603,"ECCENTRICITY":0.000367,"INCLINATION":97.7071,"RA_OF_ASC_NODE":146.4277,"ARG_OF_PERICENTER":41.7273,"MEAN_ANOMALY":318.4227,"EPHEMERIS_TYPE":0,"CLASSIFICATION_TYPE":"U","NORAD_CAT_ID":62694,"ELEMENT_SET_NO":999,"REV_AT_EPOCH":6211,"BSTAR":0.00030531,"MEAN_MOTION_DOT":3.253e-5,"MEAN_MOTION_DDOT":0},{"OBJECT_NAME":"LEMUR-2-STAR-FOX","OBJECT_ID":"2025-009CR","EPOCH":"2026-03-07T00:17:59.491968","MEAN_MOTION":15.00813881,"ECCENTRICITY":0.0002421,"INCLINATION":97.7047,"RA_OF_ASC_NODE":148.4783,"ARG_OF_PERICENTER":158.0882,"MEAN_ANOMALY":202.0446,"EPHEMERIS_TYPE":0,"CLASSIFICATION_TYPE":"U","NORAD_CAT_ID":62696,"ELEMENT_SET_NO":999,"REV_AT_EPOCH":6222,"BSTAR":0.00091252,"MEAN_MOTION_DOT":0.00011545,"MEAN_MOTION_DDOT":0}]
